NORAD_CAT_ID,OBJECT_NAME,OBJECT_TYPE,EPOCH,MEAN_MOTION,ECCENTRICITY,INCLINATION,RA_OF_ASC_NODE,ARG_OF_PERICENTER,MEAN_ANOMALY,BSTAR,MEAN_MOTION_DOT,MEAN_MOTION_DDOT,TLE_LINE0,TLE_LINE1,TLE_LINE2,SEMIMAJOR_AXIS,PERIOD,APOGEE,PERIGEE,DECAYED
53253.0,STARLINK-4133,PAYLOAD,2024-06-18 14:47:56,15.08834501,0.0001544,53.216,138.1397,85.2457,274.8711,2.0371e-05,3.6e-07,0.0,0 STARLINK-4133,1 53253U 22086M   24170.61662984  .00000036  00000-0  20371-4 0  9998,2 53253  53.2160 138.1397 0001544  85.2457 274.8711 15.08834501105915,6917.897,95.438,540.83,538.694,0.0
53253.0,STARLINK-4133,PAYLOAD,2024-06-19 06:41:48,15.08830548,0.0001579,53.2165,135.1667,89.217,270.9003,-5.775e-06,-3.8e-06,0.0,0 STARLINK-4133,1 53253U 22086M   24171.27903629 -.00000380  00000-0 -57750-5 0  9991,2 53253  53.2165 135.1667 0001579  89.2170 270.9003 15.08830548106190,6917.909,95.438,540.867,538.682,0.0
53253.0,STARLINK-4133,PAYLOAD,2024-06-19 14:38:44,15.08833214,0.0001573,53.2165,133.6799,89.513,270.6042,2.0441e-05,3.7e-07,0.0,0 STARLINK-4133,1 53253U 22086M   24171.61023531  .00000037  00000-0  20441-4 0  9997,2 53253  53.2165 133.6799 0001573  89.5130 270.6042 15.08833214106241,6917.901,95.438,540.854,538.678,0.0
53253.0,STARLINK-4133,PAYLOAD,2024-06-20 04:57:12,15.08836952,0.0001576,53.2166,131.0037,90.6489,269.4684,4.459e-05,4.22e-06,0.0,0 STARLINK-4133,1 53253U 22086M   24172.20639386  .00000422  00000-0  44590-4 0  9993,2 53253  53.2166 131.0037 0001576  90.6489 269.4684 15.08836952106152,6917.89,95.438,540.845,538.664,0.0
53253.0,STARLINK-4133,PAYLOAD,2024-06-20 06:32:35,15.08837632,0.000158,53.2166,130.7064,90.6009,269.5164,4.9475e-05,4.99e-06,0.0,0 STARLINK-4133,1 53253U 22086M   24172.27263342  .00000499  00000-0  49475-4 0  9996,2 53253  53.2166 130.7064 0001580  90.6009 269.5164 15.08837632106342,6917.888,95.438,540.846,538.66,0.0
53253.0,STARLINK-4133,PAYLOAD,2024-06-21 06:23:22,15.08841877,0.0001495,53.2164,126.2435,91.2619,268.8545,0.00012737,1.74e-05,0.0,0 STARLINK-4133,1 53253U 22086M   24173.26622950  .00001740  00000-0  12737-3 0  9990,2 53253  53.2164 126.2435 0001495  91.2619 268.8545 15.08841877106319,6917.875,95.437,540.774,538.705,0.0
53253.0,STARLINK-4133,PAYLOAD,2024-06-22 06:14:09,15.08843171,0.0001668,53.2173,121.7818,81.1391,278.979,5.8138e-05,6.37e-06,0.0,0 STARLINK-4133,1 53253U 22086M   24174.25983090  .00000637  00000-0  58138-4 0  9995,2 53253  53.2173 121.7818 0001668  81.1391 278.9790 15.08843171106640,6917.871,95.437,540.89,538.582,0.0
53253.0,STARLINK-4133,PAYLOAD,2024-06-23 02:54:10,15.08842784,0.0001559,53.217,117.9153,95.385,264.732,1.5582e-05,-4e-07,0.0,0 STARLINK-4133,1 53253U 22086M   24175.12094965 -.00000040  00000-0  15582-4 0  9991,2 53253  53.2170 117.9153 0001559  95.3850 264.7320 15.08842784106597,6917.872,95.437,540.815,538.658,0.0
53253.0,STARLINK-4133,PAYLOAD,2024-06-23 06:04:56,15.08841592,0.0001621,53.2173,117.3219,101.4329,258.6846,4.7113e-06,-2.13e-06,0.0,0 STARLINK-4133,1 53253U 22086M   24175.25343029 -.00000213  00000-0  47113-5 0  9991,2 53253  53.2173 117.3219 0001621 101.4329 258.6846 15.08841592106790,6917.876,95.437,540.862,538.619,0.0
53253.0,STARLINK-4133,PAYLOAD,2024-06-23 20:23:24,15.08837424,0.0001614,53.2174,114.6455,92.8036,267.3141,-1.7399e-06,-3.16e-06,0.0,0 STARLINK-4133,1 53253U 22086M   24175.84959350 -.00000316  00000-0 -17399-5 0  9994,2 53253  53.2174 114.6455 0001614  92.8036 267.3141 15.08837424106887,6917.888,95.438,540.87,538.637,0.0
53253.0,STARLINK-4133,PAYLOAD,2024-06-24 02:44:57,15.08838308,0.0001556,53.217,113.4562,94.4052,265.7118,3.4867e-06,-2.33e-06,0.0,0 STARLINK-4133,1 53253U 22086M   24176.11455270 -.00000233  00000-0  34867-5 0  9993,2 53253  53.2170 113.4562 0001556  94.4052 265.7118 15.08838308106743,6917.886,95.438,540.827,538.674,0.0
53253.0,STARLINK-4133,PAYLOAD,2024-06-25 02:35:44,15.0883476,0.0001528,53.2171,108.9958,99.3537,260.7628,3.5631e-05,2.79e-06,0.0,0 STARLINK-4133,1 53253U 22086M   24177.10815548  .00000279  00000-0  35631-4 0  9999,2 53253  53.2171 108.9958 0001528  99.3537 260.7628 15.08834760107079,6917.896,95.438,540.818,538.704,0.0
53253.0,STARLINK-4133,PAYLOAD,2024-06-26 00:51:08,15.08837426,0.000152,53.2173,104.8354,105.9955,254.1204,5.1004e-05,5.24e-06,0.0,0 STARLINK-4133,1 53253U 22086M   24178.03551542  .00000524  00000-0  51004-4 0  9998,2 53253  53.2173 104.8354 0001520 105.9955 254.1204 15.08837426107031,6917.888,95.438,540.805,538.702,0.0
53253.0,STARLINK-4133,PAYLOAD,2024-06-27 02:17:18,15.08841162,0.0001317,53.2169,100.0758,86.0733,274.041,4.5122e-05,4.3e-06,0.0,0 STARLINK-4133,1 53253U 22086M   24179.09535612  .00000430  00000-0  45122-4 0  9995,2 53253  53.2169 100.0758 0001317  86.0733 274.0410 15.08841162107198,6917.877,95.437,540.653,538.831,0.0
53253.0,STARLINK-4133,PAYLOAD,2024-06-27 22:57:19,15.08836608,0.0001162,53.2159,96.2135,89.1406,270.9719,3.1903e-05,2.2e-06,0.0,0 STARLINK-4133,1 53253U 22086M   24179.95648069  .00000220  00000-0  31903-4 0  9990,2 53253  53.2159  96.2135 0001162  89.1406 270.9719 15.08836608107502,6917.891,95.438,540.56,538.952,0.0
53253.0,STARLINK-4133,PAYLOAD,2024-06-28 11:40:24,15.08845581,0.0001281,53.2164,93.8312,82.2999,277.8138,-4.5924e-05,-1.019e-05,0.0,0 STARLINK-4133,1 53253U 22086M   24180.48639623 -.00001019  00000-0 -45924-4 0  9993,2 53253  53.2164  93.8312 0001281  82.2999 277.8138 15.08845581107401,6917.863,95.437,540.615,538.842,0.0
53253.0,STARLINK-4133,PAYLOAD,2024-06-28 22:48:06,15.08845902,0.0001297,53.2167,91.7509,91.1152,268.9989,3.8525e-05,3.25e-06,0.0,0 STARLINK-4133,1 53253U 22086M   24180.95007529  .00000325  00000-0  38525-4 0  9995,2 53253  53.2167  91.7509 0001297  91.1152 268.9989 15.08845902107655,6917.862,95.437,540.625,538.83,0.0
53253.0,STARLINK-4133,PAYLOAD,2024-06-29 03:34:15,15.0885436,0.0001272,53.216,90.8546,103.9843,256.1291,0.0001039,1.367e-05,0.0,0 STARLINK-4133,1 53253U 22086M   24181.14878654  .00001367  00000-0  10390-3 0  9998,2 53253  53.2160  90.8546 0001272 103.9843 256.1291 15.08854360107508,6917.836,95.437,540.581,538.822,0.0
53253.0,STARLINK-4133,PAYLOAD,2024-06-29 11:31:12,15.08836961,0.0001393,53.2157,89.3718,95.219,264.8961,2.1019e-05,4.7e-07,0.0,0 STARLINK-4133,1 53253U 22086M   24181.48000064  .00000047  00000-0  21019-4 0  9992,2 53253  53.2157  89.3718 0001393  95.2190 264.8961 15.08836961107552,6917.89,95.438,540.718,538.791,0.0
53253.0,STARLINK-4133,PAYLOAD,2024-06-29 22:38:54,15.08834243,0.0001498,53.2155,87.2895,102.125,257.991,1.9382e-05,2e-07,0.0,0 STARLINK-4133,1 53253U 22086M   24181.94368396  .00000020  00000-0  19382-4 0  9999,2 53253  53.2155  87.2895 0001498 102.1250 257.9910 15.08834243107800,6917.898,95.438,540.799,538.727,0.0
53253.0,STARLINK-4133,PAYLOAD,2024-06-30 03:25:03,15.08828712,0.0001615,53.2176,86.3954,115.131,244.985,0.00012165,1.648e-05,0.0,0 STARLINK-4133,1 53253U 22086M   24182.14240433  .00001648  00000-0  12165-3 0  9991,2 53253  53.2176  86.3954 0001615 115.1310 244.9850 15.08828712107837,6917.915,95.438,540.897,538.663,0.0
53253.0,STARLINK-4133,PAYLOAD,2024-06-30 20:54:17,15.08845373,0.0001482,53.2177,83.1255,105.4153,254.7003,6.8466e-05,8.02e-06,0.0,0 STARLINK-4133,1 53253U 22086M   24182.87103521  .00000802  00000-0  68466-4 0  9994,2 53253  53.2177  83.1255 0001482 105.4153 254.7003 15.08845373107769,6917.864,95.437,540.754,538.704,0.0
53253.0,STARLINK-4133,PAYLOAD,2024-06-30 22:29:40,15.08846307,0.0001472,53.2177,82.8281,105.567,254.5485,7.9747e-05,9.82e-06,0.0,0 STARLINK-4133,1 53253U 22086M   24182.93727424  .00000982  00000-0  79747-4 0  9998,2 53253  53.2177  82.8281 0001472 105.5670 254.5485 15.08846307107959,6917.861,95.437,540.744,538.708,0.0
53253.0,STARLINK-4133,PAYLOAD,2024-07-01 03:15:49,15.08856281,0.0001281,53.2165,81.9373,97.0623,263.0515,2.6979e-05,1.42e-06,0.0,0 STARLINK-4133,1 53253U 22086M   24183.13598909  .00000142  00000-0  26979-4 0  9992,2 53253  53.2165  81.9373 0001281  97.0623 263.0515 15.08856281107804,6917.831,95.437,540.582,538.809,0.0
53253.0,STARLINK-4133,PAYLOAD,2024-07-01 20:45:05,15.08831407,0.0001259,53.2162,78.6652,105.1031,255.0101,0.00010742,1.422e-05,0.0,0 STARLINK-4133,1 53253U 22086M   24183.86464412  .00001422  00000-0  10742-3 0  9995,2 53253  53.2162  78.6652 0001259 105.1031 255.0101 15.08831407107910,6917.907,95.438,540.643,538.901,0.0
53253.0,STARLINK-4133,PAYLOAD,2024-07-01 22:20:28,15.08832878,0.0001385,53.2168,78.3675,107.6086,252.5057,9.4071e-05,1.209e-05,0.0,0 STARLINK-4133,1 53253U 22086M   24183.93088384  .00001209  00000-0  94071-4 0  9994,2 53253  53.2168  78.3675 0001385 107.6086 252.5057 15.08832878108102,6917.902,95.438,540.725,538.809,0.0
53253.0,STARLINK-4133,PAYLOAD,2024-07-02 09:28:10,15.08836636,0.0001057,53.2158,76.2877,88.2647,271.8466,5.439e-05,5.78e-06,0.0,0 STARLINK-4133,1 53253U 22086M   24184.39456529  .00000578  00000-0  54390-4 0  9993,2 53253  53.2158  76.2877 0001057  88.2647 271.8466 15.08836636108176,6917.891,95.438,540.487,539.024,0.0
53253.0,STARLINK-4133,PAYLOAD,2024-07-02 22:11:15,15.08841694,0.0001086,53.2163,73.9097,88.6574,271.4543,-4.6559e-05,-1.029e-05,0.0,0 STARLINK-4133,1 53253U 22086M   24184.92448629 -.00001029  00000-0 -46559-4 0  9996,2 53253  53.2163  73.9097 0001086  88.6574 271.4543 15.08841694108256,6917.875,95.437,540.491,538.989,0.0
53253.0,STARLINK-4133,PAYLOAD,2024-07-02 23:46:38,15.08845314,0.0001147,53.2169,73.6131,90.7637,269.3487,-1.0953e-05,-4.62e-06,0.0,0 STARLINK-4133,1 53253U 22086M   24184.99072316 -.00000462  00000-0 -10953-4 0  9998,2 53253  53.2169  73.6131 0001147  90.7637 269.3487 15.08845314108087,6917.864,95.437,540.523,538.936,0.0
53253.0,STARLINK-4133,PAYLOAD,2024-07-03 20:26:39,15.08831633,0.0001167,53.2185,69.7515,95.8309,264.2816,9.879e-05,1.284e-05,0.0,0 STARLINK-4133,1 53253U 22086M   24185.85185105  .00001284  00000-0  98790-4 0  9991,2 53253  53.2185  69.7515 0001167  95.8309 264.2816 15.08831633108215,6917.906,95.438,540.578,538.964,0.0
